[{"OBJECT_NAME":"STARLINK-30332","OBJECT_ID":"2023-129C","EPOCH":"2026-03-09T04:40:57.838368","MEAN_MOTION":15.02591697,"ECCENTRICITY":0.000203,"INCLINATION":43.0018,"RA_OF_ASC_NODE":122.6704,"ARG_OF_PERICENTER":321.1466,"MEAN_ANOMALY":38.923,"EPHEMERIS_TYPE":0,"CLASSIFICATION_TYPE":"U","NORAD_CAT_ID":57700,"ELEMENT_SET_NO":999,"REV_AT_EPOCH":14044,"BSTAR":-0.0053344579,"MEAN_MOTION_DOT":-0.00071641,"MEAN_MOTION_DDOT":0},{"OBJECT_NAME":"CZ-6A DEB","OBJECT_ID":"2024-140EK","EPOCH":"2026-03-09T15:28:36.104448","MEAN_MOTION":14.67108539,"ECCENTRICITY":0.016811,"INCLINATION":89.0843,"RA_OF_ASC_NODE":287.4051,"ARG_OF_PERICENTER":210.7562,"MEAN_ANOMALY":148.3722,"EPHEMERIS_TYPE":0,"CLASSIFICATION_TYPE":"U","NORAD_CAT_ID":60760,"ELEMENT_SET_NO":999,"REV_AT_EPOCH":8264,"BSTAR":0.00036142,"MEAN_MOTION_DOT":2.531e-5,"MEAN_MOTION_DDOT":0}]
